[{"OBJECT_NAME":"YAOGAN-30 02C","OBJECT_ID":"2017-058C","EPOCH":"2026-03-09T23:23:41.320320","MEAN_MOTION":15.0385567,"ECCENTRICITY":0.00042194,"INCLINATION":34.9965,"RA_OF_ASC_NODE":266.8068,"ARG_OF_PERICENTER":49.9722,"MEAN_ANOMALY":310.1357,"EPHEMERIS_TYPE":0,"CLASSIFICATION_TYPE":"U","NORAD_CAT_ID":42947,"ELEMENT_SET_NO":999,"REV_AT_EPOCH":46087,"BSTAR":0.00031396475,"MEAN_MOTION_DOT":4.384e-5,"MEAN_MOTION_DDOT":0},{"OBJECT_NAME":"STARLINK-34915","OBJECT_ID":"2025-175P","EPOCH":"2026-03-09T15:27:15.778368","MEAN_MOTION":15.0567095,"ECCENTRICITY":0.0002365,"INCLINATION":97.602,"RA_OF_ASC_NODE":302.6143,"ARG_OF_PERICENTER":82.3451,"MEAN_ANOMALY":277.8045,"EPHEMERIS_TYPE":0,"CLASSIFICATION_TYPE":"U","NORAD_CAT_ID":65187,"ELEMENT_SET_NO":999,"REV_AT_EPOCH":3263,"BSTAR":0.00024839,"MEAN_MOTION_DOT":3.527e-5,"MEAN_MOTION_DDOT":0}]
